0 ARIANE 5 R/B
1 39036U 12075C   13280.68851053  .00004060  00000-0  17164-2 0  1955
2 39036 002.3606 102.3893 7263085 080.4451 348.3735 02.29308280  6675
0 ARIANE 5 R/B
1 39036U 12075C   13282.43233999  .00003535  00000-0  15917-2 0  1964
2 39036 002.3625 101.5669 7262063 081.9792 347.9341 02.29319210  6715
0 ARIANE 5 R/B
1 39036U 12075C   13282.86827451  .00003602  00000-0  15801-2 0  1971
2 39036 002.3639 101.3277 7262836 082.4213 347.8190 02.29323438  6724
0 ARIANE 5 R/B
1 39036U 12075C   13283.30415394  .00006120  00000-0  24939-2 0  1981
2 39036 002.3627 100.9631 7263348 082.9855 347.6569 02.29326628  6739
0 ARIANE 5 R/B
1 39036U 12075C   13285.48381914  .00003347  00000-0  15801-2 0  1988
2 39036 002.3651 100.2439 7262757 084.5919 347.1932 02.29343274  6787
0 ARIANE 5 R/B
1 39036U 12075C   13288.53495108  .00003271  00000-0  16297-2 0  2008
2 39036 002.3682 098.6525 7261794 087.4693 346.4200 02.29367121  6853
0 ARIANE 5 R/B
1 39036U 12075C   13288.53507893  .00003363  00000-0  16969-2 0  1998
2 39036 002.3709 098.6690 7261412 087.4306 346.5314 02.29367700  6854
0 ARIANE 5 R/B
1 39036U 12075C   13289.40666267  .00003530  00000-0  17144-2 0  2012
2 39036 002.3694 098.2397 7261797 088.2466 346.2157 02.29374708  6879
0 ARIANE 5 R/B
1 39036U 12075C   13292.89305873  .00004212  00000-0  18789-2 0  2027
2 39036 002.3751 096.6018 7261663 091.3435 345.2971 02.29407622  6952
0 ARIANE 5 R/B
1 39036U 12075C   13294.20007747  .00004377  00000-0  19347-2 0  2037
2 39036 002.3746 095.9510 7261501 092.5436 344.7401 02.29420092  6981
